[{"OBJECT_NAME":"FENGYUN 1C DEB","OBJECT_ID":"1999-025BGH","EPOCH":"2026-03-07T00:32:23.805600","MEAN_MOTION":14.61103727,"ECCENTRICITY":0.0171473,"INCLINATION":98.0965,"RA_OF_ASC_NODE":89.6303,"ARG_OF_PERICENTER":27.2612,"MEAN_ANOMALY":2.829,"EPHEMERIS_TYPE":0,"CLASSIFICATION_TYPE":"U","NORAD_CAT_ID":31087,"ELEMENT_SET_NO":999,"REV_AT_EPOCH":1,"BSTAR":0.00094333,"MEAN_MOTION_DOT":5.664e-5,"MEAN_MOTION_DDOT":0},{"OBJECT_NAME":"FENGYUN 1C DEB","OBJECT_ID":"1999-025BGJ","EPOCH":"2026-03-07T03:37:25.635360","MEAN_MOTION":14.29450704,"ECCENTRICITY":0.0030704,"INCLINATION":99.4004,"RA_OF_ASC_NODE":137.9482,"ARG_OF_PERICENTER":176.3445,"MEAN_ANOMALY":205.1722,"EPHEMERIS_TYPE":0,"CLASSIFICATION_TYPE":"U","NORAD_CAT_ID":31088,"ELEMENT_SET_NO":999,"REV_AT_EPOCH":97755,"BSTAR":0.0015679,"MEAN_MOTION_DOT":3.973e-5,"MEAN_MOTION_DDOT":0},{"OBJECT_NAME":"FENGYUN 1C DEB","OBJECT_ID":"1999-025BGK","EPOCH":"2026-03-06T08:40:58.929024","MEAN_MOTION":13.88481819,"ECCENTRICITY":0.02042998,"INCLINATION":98.9568,"RA_OF_ASC_NODE":209.1307,"ARG_OF_PERICENTER":344.8251,"MEAN_ANOMALY":44.8574,"EPHEMERIS_TYPE":0,"CLASSIFICATION_TYPE":"U","NORAD_CAT_ID":31089,"ELEMENT_SET_NO":999,"REV_AT_EPOCH":69220,"BSTAR":0.0004727954,"MEAN_MOTION_DOT":6.27e-6,"MEAN_MOTION_DDOT":0},{"OBJECT_NAME":"FENGYUN 1C DEB","OBJECT_ID":"1999-025BGL","EPOCH":"2026-03-06T06:34:15.802464","MEAN_MOTION":15.4692418,"ECCENTRICITY":0.00436247,"INCLINATION":98.9814,"RA_OF_ASC_NODE":193.0889,"ARG_OF_PERICENTER":208.3465,"MEAN_ANOMALY":151.5407,"EPHEMERIS_TYPE":0,"CLASSIFICATION_TYPE":"U","NORAD_CAT_ID":31090,"ELEMENT_SET_NO":999,"REV_AT_EPOCH":2123,"BSTAR":0.0022817584,"MEAN_MOTION_DOT":0.00120734,"MEAN_MOTION_DDOT":0},{"OBJECT_NAME":"FENGYUN 1C DEB","OBJECT_ID":"1999-025BGM","EPOCH":"2026-03-05T18:10:57.975744","MEAN_MOTION":13.54240405,"ECCENTRICITY":0.02904886,"INCLINATION":99.2362,"RA_OF_ASC_NODE":41.4075,"ARG_OF_PERICENTER":117.7505,"MEAN_ANOMALY":245.3413,"EPHEMERIS_TYPE":0,"CLASSIFICATION_TYPE":"U","NORAD_CAT_ID":31091,"ELEMENT_SET_NO":999,"REV_AT_EPOCH":62763,"BSTAR":0.00093945176,"MEAN_MOTION_DOT":7.98e-6,"MEAN_MOTION_DDOT":0},{"OBJECT_NAME":"FENGYUN 1C DEB","OBJECT_ID":"1999-025BGN","EPOCH":"2026-03-05T06:08:34.411776","MEAN_MOTION":13.46691764,"ECCENTRICITY":0.0325721,"INCLINATION":99.7172,"RA_OF_ASC_NODE":182.7872,"ARG_OF_PERICENTER":292.5367,"MEAN_ANOMALY":64.1597,"EPHEMERIS_TYPE":0,"CLASSIFICATION_TYPE":"U","NORAD_CAT_ID":31092,"ELEMENT_SET_NO":999,"REV_AT_EPOCH":92992,"BSTAR":0.0011677,"MEAN_MOTION_DOT":9.28e-6,"MEAN_MOTION_DDOT":0},{"OBJECT_NAME":"FENGYUN 1C DEB","OBJECT_ID":"1999-025BGP","EPOCH":"2026-03-05T12:16:27.622848","MEAN_MOTION":13.80717599,"ECCENTRICITY":0.0208576,"INCLINATION":98.5959,"RA_OF_ASC_NODE":261.1274,"ARG_OF_PERICENTER":359.2025,"MEAN_ANOMALY":0.8769,"EPHEMERIS_TYPE":0,"CLASSIFICATION_TYPE":"U","NORAD_CAT_ID":31093,"ELEMENT_SET_NO":999,"REV_AT_EPOCH":95649,"BSTAR":0.00038804,"MEAN_MOTION_DOT":4.42e-6,"MEAN_MOTION_DDOT":0},{"OBJECT_NAME":"FENGYUN 1C DEB","OBJECT_ID":"1999-025BGQ","EPOCH":"2026-03-06T03:19:33.881376","MEAN_MOTION":14.02489737,"ECCENTRICITY":0.01041265,"INCLINATION":98.8554,"RA_OF_ASC_NODE":295.6819,"ARG_OF_PERICENTER":175.3139,"MEAN_ANOMALY":184.9027,"EPHEMERIS_TYPE":0,"CLASSIFICATION_TYPE":"U","NORAD_CAT_ID":31094,"ELEMENT_SET_NO":999,"REV_AT_EPOCH":96788,"BSTAR":0.0016026441,"MEAN_MOTION_DOT":2.544e-5,"MEAN_MOTION_DDOT":0},{"OBJECT_NAME":"FENGYUN 1C DEB","OBJECT_ID":"1999-025BGR","EPOCH":"2026-03-07T02:04:38.174016","MEAN_MOTION":13.06694336,"ECCENTRICITY":0.049863,"INCLINATION":98.57,"RA_OF_ASC_NODE":196.7926,"ARG_OF_PERICENTER":350.0599,"MEAN_ANOMALY":9.093,"EPHEMERIS_TYPE":0,"CLASSIFICATION_TYPE":"U","NORAD_CAT_ID":31095,"ELEMENT_SET_NO":999,"REV_AT_EPOCH":90549,"BSTAR":-0.00059226,"MEAN_MOTION_DOT":-3.92e-6,"MEAN_MOTION_DDOT":0},{"OBJECT_NAME":"FENGYUN 1C DEB","OBJECT_ID":"1999-025BGT","EPOCH":"2026-03-07T02:21:07.918848","MEAN_MOTION":14.49138536,"ECCENTRICITY":0.0010399,"INCLINATION":98.8594,"RA_OF_ASC_NODE":197.9144,"ARG_OF_PERICENTER":24.7998,"MEAN_ANOMALY":27.7711,"EPHEMERIS_TYPE":0,"CLASSIFICATION_TYPE":"U","NORAD_CAT_ID":31097,"ELEMENT_SET_NO":999,"REV_AT_EPOCH":98259,"BSTAR":0.0029787,"MEAN_MOTION_DOT":0.00011305,"MEAN_MOTION_DDOT":0},{"OBJECT_NAME":"FENGYUN 1C DEB","OBJECT_ID":"1999-025BGU","EPOCH":"2026-03-06T13:30:17.091648","MEAN_MOTION":14.54089878,"ECCENTRICITY":0.00100928,"INCLINATION":98.8692,"RA_OF_ASC_NODE":193.2957,"ARG_OF_PERICENTER":358.3916,"MEAN_ANOMALY":1.7244,"EPHEMERIS_TYPE":0,"CLASSIFICATION_TYPE":"U","NORAD_CAT_ID":31098,"ELEMENT_SET_NO":999,"REV_AT_EPOCH":98174,"BSTAR":0.0037662233,"MEAN_MOTION_DOT":0.00015902,"MEAN_MOTION_DDOT":0},{"OBJECT_NAME":"FENGYUN 1C DEB","OBJECT_ID":"1999-025BGV","EPOCH":"2026-03-06T04:34:12.018432","MEAN_MOTION":14.28053984,"ECCENTRICITY":0.00642127,"INCLINATION":98.9326,"RA_OF_ASC_NODE":324.5945,"ARG_OF_PERICENTER":39.5867,"MEAN_ANOMALY":112.5622,"EPHEMERIS_TYPE":0,"CLASSIFICATION_TYPE":"U","NORAD_CAT_ID":31099,"ELEMENT_SET_NO":999,"REV_AT_EPOCH":98662,"BSTAR":0.00031118528,"MEAN_MOTION_DOT":7.44e-6,"MEAN_MOTION_DDOT":0},{"OBJECT_NAME":"FENGYUN 1C DEB","OBJECT_ID":"1999-025BGY","EPOCH":"2026-03-05T06:49:03.575424","MEAN_MOTION":14.28071687,"ECCENTRICITY":0.0210868,"INCLINATION":99.0478,"RA_OF_ASC_NODE":3.0139,"ARG_OF_PERICENTER":288.797,"MEAN_ANOMALY":69.0441,"EPHEMERIS_TYPE":0,"CLASSIFICATION_TYPE":"U","NORAD_CAT_ID":31146,"ELEMENT_SET_NO":999,"REV_AT_EPOCH":97943,"BSTAR":0.0008093,"MEAN_MOTION_DOT":2.496e-5,"MEAN_MOTION_DDOT":0},{"OBJECT_NAME":"FENGYUN 1C DEB","OBJECT_ID":"1999-025BHA","EPOCH":"2026-03-06T15:12:10.087776","MEAN_MOTION":14.44038117,"ECCENTRICITY":0.01342228,"INCLINATION":98.8597,"RA_OF_ASC_NODE":319.6767,"ARG_OF_PERICENTER":160.195,"MEAN_ANOMALY":200.4522,"EPHEMERIS_TYPE":0,"CLASSIFICATION_TYPE":"U","NORAD_CAT_ID":31148,"ELEMENT_SET_NO":999,"REV_AT_EPOCH":98741,"BSTAR":0.00088529466,"MEAN_MOTION_DOT":3.328e-5,"MEAN_MOTION_DDOT":0},{"OBJECT_NAME":"FENGYUN 1C DEB","OBJECT_ID":"1999-025BHC","EPOCH":"2026-03-06T23:12:31.747104","MEAN_MOTION":14.12792102,"ECCENTRICITY":0.0013803,"INCLINATION":98.6865,"RA_OF_ASC_NODE":77.0841,"ARG_OF_PERICENTER":284.2102,"MEAN_ANOMALY":105.5946,"EPHEMERIS_TYPE":0,"CLASSIFICATION_TYPE":"U","NORAD_CAT_ID":31150,"ELEMENT_SET_NO":999,"REV_AT_EPOCH":97486,"BSTAR":0.00017914,"MEAN_MOTION_DOT":2.9e-6,"MEAN_MOTION_DDOT":0},{"OBJECT_NAME":"FENGYUN 1C DEB","OBJECT_ID":"1999-025BHD","EPOCH":"2026-03-06T23:15:34.787232","MEAN_MOTION":14.26839558,"ECCENTRICITY":0.0056834,"INCLINATION":99.1346,"RA_OF_ASC_NODE":80.0029,"ARG_OF_PERICENTER":142.057,"MEAN_ANOMALY":218.4635,"EPHEMERIS_TYPE":0,"CLASSIFICATION_TYPE":"U","NORAD_CAT_ID":31151,"ELEMENT_SET_NO":999,"REV_AT_EPOCH":97175,"BSTAR":0.0020928,"MEAN_MOTION_DOT":5.119e-5,"MEAN_MOTION_DDOT":0},{"OBJECT_NAME":"FENGYUN 1C DEB","OBJECT_ID":"1999-025BHE","EPOCH":"2026-03-05T10:46:20.333280","MEAN_MOTION":14.35918115,"ECCENTRICITY":0.0129995,"INCLINATION":98.4241,"RA_OF_ASC_NODE":54.1284,"ARG_OF_PERICENTER":145.7824,"MEAN_ANOMALY":5.7572,"EPHEMERIS_TYPE":0,"CLASSIFICATION_TYPE":"U","NORAD_CAT_ID":31152,"ELEMENT_SET_NO":999,"REV_AT_EPOCH":99235,"BSTAR":0.00010227,"MEAN_MOTION_DOT":2.82e-6,"MEAN_MOTION_DDOT":0},{"OBJECT_NAME":"FENGYUN 1C DEB","OBJECT_ID":"1999-025BHH","EPOCH":"2026-03-05T21:41:44.090592","MEAN_MOTION":14.08768555,"ECCENTRICITY":0.0091851,"INCLINATION":99.0315,"RA_OF_ASC_NODE":139.0086,"ARG_OF_PERICENTER":130.7844,"MEAN_ANOMALY":230.134,"EPHEMERIS_TYPE":0,"CLASSIFICATION_TYPE":"U","NORAD_CAT_ID":31155,"ELEMENT_SET_NO":999,"REV_AT_EPOCH":96758,"BSTAR":0.0014781791,"MEAN_MOTION_DOT":2.606e-5,"MEAN_MOTION_DDOT":0},{"OBJECT_NAME":"FENGYUN 1C DEB","OBJECT_ID":"1999-025BHK","EPOCH":"2026-02-28T04:05:55.821408","MEAN_MOTION":14.22675178,"ECCENTRICITY":0.01012384,"INCLINATION":98.4871,"RA_OF_ASC_NODE":44.808,"ARG_OF_PERICENTER":100.2324,"MEAN_ANOMALY":261.029,"EPHEMERIS_TYPE":0,"CLASSIFICATION_TYPE":"U","NORAD_CAT_ID":31157,"ELEMENT_SET_NO":999,"REV_AT_EPOCH":98084,"BSTAR":0.00024794401,"MEAN_MOTION_DOT":5.44e-6,"MEAN_MOTION_DDOT":0},{"OBJECT_NAME":"FENGYUN 1C DEB","OBJECT_ID":"1999-025BHL","EPOCH":"2026-02-26T00:08:38.054400","MEAN_MOTION":14.34106141,"ECCENTRICITY":0.00501949,"INCLINATION":98.7719,"RA_OF_ASC_NODE":141.7312,"ARG_OF_PERICENTER":172.1138,"MEAN_ANOMALY":188.0847,"EPHEMERIS_TYPE":0,"CLASSIFICATION_TYPE":"U","NORAD_CAT_ID":31158,"ELEMENT_SET_NO":999,"REV_AT_EPOCH":65558,"BSTAR":0.0015829148,"MEAN_MOTION_DOT":4.448e-5,"MEAN_MOTION_DDOT":0},{"OBJECT_NAME":"FENGYUN 1C DEB","OBJECT_ID":"1999-025BHM","EPOCH":"2026-03-07T03:19:07.107744","MEAN_MOTION":15.52262654,"ECCENTRICITY":0.0087892,"INCLINATION":97.8057,"RA_OF_ASC_NODE":36.979,"ARG_OF_PERICENTER":70.3348,"MEAN_ANOMALY":290.7362,"EPHEMERIS_TYPE":0,"CLASSIFICATION_TYPE":"U","NORAD_CAT_ID":31159,"ELEMENT_SET_NO":999,"REV_AT_EPOCH":836,"BSTAR":0.0018104,"MEAN_MOTION_DOT":0.00131276,"MEAN_MOTION_DDOT":0},{"OBJECT_NAME":"FENGYUN 1C DEB","OBJECT_ID":"1999-025BHN","EPOCH":"2026-03-07T02:34:33.354336","MEAN_MOTION":13.99625242,"ECCENTRICITY":0.005909,"INCLINATION":99.0694,"RA_OF_ASC_NODE":126.6649,"ARG_OF_PERICENTER":23.3856,"MEAN_ANOMALY":336.9976,"EPHEMERIS_TYPE":0,"CLASSIFICATION_TYPE":"U","NORAD_CAT_ID":31160,"ELEMENT_SET_NO":999,"REV_AT_EPOCH":70779,"BSTAR":0.00013623,"MEAN_MOTION_DOT":1.58e-6,"MEAN_MOTION_DDOT":0},{"OBJECT_NAME":"FENGYUN 1C DEB","OBJECT_ID":"1999-025BHP","EPOCH":"2026-03-06T12:26:34.484352","MEAN_MOTION":14.09358585,"ECCENTRICITY":0.0069703,"INCLINATION":98.7428,"RA_OF_ASC_NODE":89.6776,"ARG_OF_PERICENTER":112.4109,"MEAN_ANOMALY":248.4465,"EPHEMERIS_TYPE":0,"CLASSIFICATION_TYPE":"U","NORAD_CAT_ID":31161,"ELEMENT_SET_NO":999,"REV_AT_EPOCH":97282,"BSTAR":0.00032695483,"MEAN_MOTION_DOT":5.41e-6,"MEAN_MOTION_DDOT":0}]
